NORAD_CAT_ID,OBJECT_NAME,OBJECT_TYPE,EPOCH,MEAN_MOTION,ECCENTRICITY,INCLINATION,RA_OF_ASC_NODE,ARG_OF_PERICENTER,MEAN_ANOMALY,BSTAR,MEAN_MOTION_DOT,MEAN_MOTION_DDOT,TLE_LINE0,TLE_LINE1,TLE_LINE2,SEMIMAJOR_AXIS,PERIOD,APOGEE,PERIGEE,DECAYED
51739.0,STARLINK-3516,PAYLOAD,2022-09-06 12:00:00,15.08821813,0.0001730999999999,53.218,306.1167,51.0671,348.2238,0.00056341,8.686e-05,0.0,0 STARLINK-3516,1 51739U 22016AB  22249.50001157  .00008686  00000-0  56341-3 0  9994,2 51739  53.2180 306.1167 0001731  51.0671 348.2238 15.08821813 31429,6917.936,95.439,540.998,538.6030000000002,0.0
51739.0,STARLINK-3516,PAYLOAD,2022-09-06 14:00:01,15.08812518,0.0001735,53.2181,305.7428,49.2056,82.98299999999998,0.0018708,0.00029589,0.0,0 STARLINK-3516,1 51739U 22016AB  22249.58334491  .00029589  00000-0  18708-2 0  9991,2 51739  53.2181 305.7428 0001735  49.2056  82.9830 15.08812518  1301,6917.964,95.439,541.03,538.629,0.0
51739.0,STARLINK-3516,PAYLOAD,2022-09-06 22:00:00,15.08811792,0.0001641,53.2182,304.2449,54.4989,89.2698,-0.00013113,-2.373e-05,0.0,0 STARLINK-3516,1 51739U 22016AB  22249.91667824 -.00002373  00000-0 -13113-3 0  9997,2 51739  53.2182 304.2449 0001641  54.4989  89.2698 15.08811792  1303,6917.967,95.439,540.967,538.696,0.0
51739.0,STARLINK-3516,PAYLOAD,2022-09-07 06:00:00,15.08829977,0.0001730999999999,53.2183,302.7489,57.1494,98.1738,-0.00085682,-0.00013895,0.0,0 STARLINK-3516,1 51739U 22016AB  22250.25001157 -.00013895  00000-0 -85682-3 0  9998,2 51739  53.2183 302.7489 0001731  57.1494  98.1738 15.08829977 31538,6917.911,95.438,540.974,538.5790000000002,0.0
51739.0,STARLINK-3516,PAYLOAD,2022-09-07 14:00:01,15.08747169,0.0001915,53.218,301.2519,51.3995,115.5159,0.0055181999999999,0.00088413,0.0,0 STARLINK-3516,1 51739U 22016AB  22250.58334491  .00088413  00000-0  55182-2 0  9991,2 51739  53.2180 301.2519 0001915  51.3995 115.5159 15.08747169  1304,6918.1640000000025,95.443,541.354,538.7040000000002,0.0
51739.0,STARLINK-3516,PAYLOAD,2022-09-07 22:00:00,15.08942555,0.0001740999999999,53.2179,299.7514,55.9589,122.4477,-0.0063011,-0.00099468,0.0,0 STARLINK-3516,1 51739U 22016AB  22250.91667824 -.00099468  00000-0 -63011-2 0  9991,2 51739  53.2179 299.7514 0001741  55.9589 122.4477 15.08942555 31639,6917.566999999999,95.431,540.636,538.2280000000002,0.0
51739.0,STARLINK-3516,PAYLOAD,2022-09-08 06:00:00,15.08852492,0.0001801,53.2184,298.2604,56.3348,133.6651,-0.0009039,-0.0001465,0.0,0 STARLINK-3516,1 51739U 22016AB  22251.25001157 -.00014650  00000-0 -90390-3 0  9991,2 51739  53.2184 298.2604 0001801  56.3348 133.6651 15.08852492 31687,6917.842,95.437,540.953,538.461,0.0
51739.0,STARLINK-3516,PAYLOAD,2022-09-08 14:00:01,15.08815923,0.0001928,53.2181,296.7654,49.938,151.6619,0.0032118,0.00051166,0.0,0 STARLINK-3516,1 51739U 22016AB  22251.58334491  .00051166  00000-0  32118-2 0  9991,2 51739  53.2181 296.7654 0001928  49.9380 151.6619 15.08815923  1304,6917.954000000002,95.439,541.153,538.485,0.0
51739.0,STARLINK-3516,PAYLOAD,2022-09-09 00:00:02,15.08826294,0.0001754999999999,53.218,294.893,57.1173,249.0503,0.0033141,0.00052832,0.0,0 STARLINK-3516,1 51739U 22016AB  22252.00002315  .00052832  00000-0  33141-2 0  9994,2 51739  53.2180 294.8930 0001755  57.1173 249.0503 15.08826294  1305,6917.922,95.438,541.001,538.573,0.0
51739.0,STARLINK-3516,PAYLOAD,2022-09-09 06:00:00,15.08871309,0.0001813,53.2181,293.7716,56.3969,168.4014,-0.0010884,-0.00017583,0.0,0 STARLINK-3516,1 51739U 22016AB  22252.25001157 -.00017583  00000-0 -10884-2 0  9999,2 51739  53.2181 293.7716 0001813  56.3969 168.4014 15.08871309 31834,6917.785,95.436,540.904,538.395,0.0
51739.0,STARLINK-3516,PAYLOAD,2022-09-09 14:00:01,15.08854217,0.0001892,53.2176,292.2763,50.0189,186.4066,0.00078064,0.00012163,0.0,0 STARLINK-3516,1 51739U 22016AB  22252.58334491  .00012163  00000-0  78064-3 0  9997,2 51739  53.2176 292.2763 0001892  50.0189 186.4066 15.08854217  1301,6917.837,95.437,541.011,538.393,0.0
51739.0,STARLINK-3516,PAYLOAD,2022-09-09 22:00:00,15.08829566,0.0001674,53.2176,290.7781,54.2594,193.7938,0.0017833999999999,0.00028201,0.0,0 STARLINK-3516,1 51739U 22016AB  22252.91667824  .00028201  00000-0  17834-2 0  9990,2 51739  53.2176 290.7781 0001674  54.2594 193.7938 15.08829566  1306,6917.9119999999975,95.438,540.935,538.619,0.0
51739.0,STARLINK-3516,PAYLOAD,2022-09-10 06:00:02,15.08866301,0.0001706999999999,53.2177,289.2819,54.8841,204.821,-0.0015837,-0.00025422,0.0,0 STARLINK-3516,1 51739U 22016AB  22253.25002315 -.00025422  00000-0 -15837-2 0  9991,2 51739  53.2177 289.2819 0001707  54.8841 204.8210 15.08866301 31982,6917.8,95.436,540.846,538.484,0.0
51739.0,STARLINK-3516,PAYLOAD,2022-09-10 14:00:01,15.08829362,0.0001764,53.2169,287.7871,47.4912,223.7679,0.00045328,6.931e-05,0.0,0 STARLINK-3516,1 51739U 22016AB  22253.58334491  .00006931  00000-0  45328-3 0  9991,2 51739  53.2169 287.7871 0001764  47.4912 223.7679 15.08829362  1302,6917.913000000001,95.438,540.998,538.558,0.0
51739.0,STARLINK-3516,PAYLOAD,2022-09-10 22:00:00,15.08811193,0.0001578,53.2169,286.2889,53.1831,229.6724,0.002522,0.00040046,0.0,0 STARLINK-3516,1 51739U 22016AB  22253.91667824  .00040046  00000-0  25220-2 0  9990,2 51739  53.2169 286.2889 0001578  53.1831 229.6724 15.08811193  1301,6917.968000000003,95.439,540.925,538.742,0.0
51739.0,STARLINK-3516,PAYLOAD,2022-09-11 06:00:00,15.08852455,0.0001654,53.2171,284.7928,53.1756,241.2549,-0.0014168,-0.00022773,0.0,0 STARLINK-3516,1 51739U 22016AB  22254.25001157 -.00022773  00000-0 -14168-2 0  9997,2 51739  53.2171 284.7928 0001654  53.1756 241.2549 15.08852455 32138,6917.842,95.437,540.852,538.563,0.0
51739.0,STARLINK-3516,PAYLOAD,2022-09-11 14:00:01,15.08837019,0.0001729,53.2162,283.2977,47.3992,258.6342,0.0013117,0.00020648,0.0,0 STARLINK-3516,1 51739U 22016AB  22254.58334491  .00020648  00000-0  13117-2 0  9993,2 51739  53.2162 283.2977 0001729  47.3992 258.6342 15.08837019  1303,6917.89,95.438,540.951,538.558,0.0
51739.0,STARLINK-3516,PAYLOAD,2022-09-11 22:00:00,15.08818215,0.0001539,53.2163,281.7994,53.1197,264.5249,0.001139,0.00017875,0.0,0 STARLINK-3516,1 51739U 22016AB  22254.91667824  .00017875  00000-0  11390-2 0  9998,2 51739  53.2163 281.7994 0001539  53.1197 264.5249 15.08818215  1306,6917.946999999999,95.439,540.877,538.747,0.0
51739.0,STARLINK-3516,PAYLOAD,2022-09-12 06:00:00,15.08843488,0.0001621999999999,53.2163,280.30400000000003,51.1567,278.0623,-0.0013763,-0.00022127,0.0,0 STARLINK-3516,1 51739U 22016AB  22255.25001157 -.00022127  00000-0 -13763-2 0  9991,2 51739  53.2163 280.3040 0001622  51.1567 278.0623 15.08843488 32282,6917.87,95.437,540.857,538.613,0.0
51739.0,STARLINK-3516,PAYLOAD,2022-09-12 14:00:01,15.08828875,0.0001712,53.2159,278.8081,45.7,295.1075,0.0014901,0.00023499,0.0,0 STARLINK-3516,1 51739U 22016AB  22255.58334491  .00023499  00000-0  14901-2 0  9993,2 51739  53.2159 278.8081 0001712  45.7000 295.1075 15.08828875  1308,6917.9140000000025,95.438,540.964,538.595,0.0
51739.0,STARLINK-3516,PAYLOAD,2022-09-12 22:00:00,15.08818572,0.0001569,53.2161,277.3099,52.7852,299.6244,0.0033228,0.00052961,0.0,0 STARLINK-3516,1 51739U 22016AB  22255.91667824  .00052961  00000-0  33228-2 0  9998,2 51739  53.2161 277.3099 0001569  52.7852 299.6244 15.08818572 32389,6917.946,95.439,540.896,538.725,0.0
51739.0,STARLINK-3516,PAYLOAD,2022-09-13 08:00:01,15.08815757,0.0001759,53.217,275.4361,48.9353,47.9833,-0.0014394,-0.00023108,0.0,0 STARLINK-3516,1 51739U 22016AB  22256.33334491 -.00023108  00000-0 -14394-2 0  9992,2 51739  53.2170 275.4361 0001759  48.9353  47.9833 15.08815757 32452,6917.954000000002,95.439,541.036,538.6030000000002,0.0
51739.0,STARLINK-3516,PAYLOAD,2022-09-13 14:00:01,15.08818975,0.0001794,53.217,274.3121,42.6032,332.9729,0.001885,0.00029822,0.0,0 STARLINK-3516,1 51739U 22016AB  22256.58334491  .00029822  00000-0  18850-2 0  9997,2 51739  53.2170 274.3121 0001794  42.6032 332.9729 15.08818975  1304,6917.945,95.439,541.0509999999998,538.569,0.0
51739.0,STARLINK-3516,PAYLOAD,2022-09-13 16:00:00,15.08839151,0.0001785,53.2172,273.9369,43.8337,64.6318,-0.00022697,-3.898e-05,0.0,0 STARLINK-3516,1 51739U 22016AB  22256.66667824 -.00003898  00000-0 -22697-3 0  9997,2 51739  53.2172 273.9369 0001785  43.8337  64.6318 15.08839151 32504,6917.8830000000025,95.438,540.9830000000002,538.513,0.0
51739.0,STARLINK-3516,PAYLOAD,2022-09-13 22:00:00,15.0880976,0.0001571,53.2164,272.82,50.2307,336.9694,0.0033289,0.00053046,0.0,0 STARLINK-3516,1 51739U 22016AB  22256.91667824  .00053046  00000-0  33289-2 0  9991,2 51739  53.2164 272.8200 0001571  50.2307 336.9694 15.08809760  1308,6917.973000000001,95.439,540.925,538.751,0.0
51739.0,STARLINK-3516,PAYLOAD,2022-09-14 06:00:00,15.08856073,0.0001736,53.2168,271.3248,47.8886,350.8927,-0.0014402,-0.00023146,0.0,0 STARLINK-3516,1 51739U 22016AB  22257.25001157 -.00023146  00000-0 -14402-2 0  9996,2 51739  53.2168 271.3248 0001736  47.8886 350.8927 15.08856073 32593,6917.831,95.437,540.8969999999998,538.495,0.0
51739.0,STARLINK-3516,PAYLOAD,2022-09-14 14:00:01,15.08823069,0.0001737,53.2166,269.829,41.419,8.9576,0.00060115,9.288e-05,0.0,0 STARLINK-3516,1 51739U 22016AB  22257.58334491  .00009288  00000-0  60115-3 0  9994,2 51739  53.2166 269.8290 0001737  41.4190   8.9576 15.08823069  1304,6917.932,95.439,540.999,538.595,0.0
51739.0,STARLINK-3516,PAYLOAD,2022-09-14 22:00:00,15.08807208,0.0001582,53.217,268.3309,48.3939,13.5712,0.0033051,0.00052659,0.0,0 STARLINK-3516,1 51739U 22016AB  22257.91667824  .00052659  00000-0  33051-2 0  9998,2 51739  53.2170 268.3309 0001582  48.3939  13.5712 15.08807208  1300,6917.981,95.44,540.94,538.751,0.0
51739.0,STARLINK-3516,PAYLOAD,2022-09-15 06:00:00,15.08850371,0.0001763,53.2172,266.8359,46.5727,26.9696,-0.0012246,-0.0001973,0.0,0 STARLINK-3516,1 51739U 22016AB  22258.25001157 -.00019730  00000-0 -12246-2 0  9995,2 51739  53.2172 266.8359 0001763  46.5727  26.9696 15.08850371 32746,6917.849,95.437,540.933,538.494,0.0
